#aV2015  7 27  0  0  0.00000000     288 DD+AD WGS84 FIT  NGA
## 1855  86400.00000000   300.00000000 57230 0.0000000000000
+   31     1  2  3  4  5  6  7  9 10 11 12 13 14 15 16 17 18
+         19 20 21 22 23 24 25 26 27 28 29 30 31 32  0  0  0
+          0  0  0  0  0  0  0  0  0  0  0  0  0  0  0  0  0
+          0  0  0  0  0  0  0  0  0  0  0  0  0  0  0  0  0
+          0  0  0  0  0  0  0  0  0  0  0  0  0  0  0  0  0
++         2  2  2  2  2  2  2  2  2  2  2  2  2  2  2  2  2
++         2  2  2  2  2  2  2  2  2  2  2  2  2  2  0  0  0
++         0  0  0  0  0  0  0  0  0  0  0  0  0  0  0  0  0
++         0  0  0  0  0  0  0  0  0  0  0  0  0  0  0  0  0
++         0  0  0  0  0  0  0  0  0  0  0  0  0  0  0  0  0
%c cc cc ccc ccc cccc cccc cccc cccc ccccc ccccc ccccc ccccc
%c cc cc ccc ccc cccc cccc cccc cccc ccccc ccccc ccccc ccccc
%f  0.0000000  0.000000000  0.00000000000  0.000000000000000
%f  0.0000000  0.000000000  0.00000000000  0.000000000000000
%i    0    0    0    0      0      0      0      0         0
%i    0    0    0    0      0      0      0      0         0
/*      NGA, ST. LOUIS,MO.                                  
/*   EPHEMERIS COMPUTED FROM  1 DAYS OF DATA                
/*   EPOCHA SMOOTHER                                       
/* CCCCCCCCCCCCCCCCCCCCCCCCCCCCCCCCCCCCCCCCCCCCCCCCCCCCCCCCC
*  2015  7 27  0 20  0.00000000
P  1  12160.535472  13411.895189 -19560.629075     -2.259080                    
V  1 -24617.875114   1516.664512 -14113.724679      0.006133                    
P  2  11890.299061 -14513.649109  19005.624701    580.617708                    
V  2  23633.977095    482.165135 -15152.761298      0.022143                    
P  3  13501.431612  22847.956674   -488.340471     11.204485                    
V  3  -2815.808307    966.331989 -31725.092720      0.035835                    
P  4   1919.263842  15731.828568 -21657.974085     -4.640662                    
V  4 -26759.462855   1103.974701  -1329.478524     -0.032359                    
P  5   2307.561179 -19920.134180  17268.297972   -213.461211                    
V  5  13430.801669  17731.613277  18791.765498      0.042958                    
P  6  23288.535169  -7678.938110  10197.830534     24.915408                    
V  6  13006.732772   2120.336598 -28107.735962      0.080574                    
P  7  24095.216451   6651.367671   9644.911054    476.666420                    
V  7 -11956.229625   1928.496933  28497.543974      0.020648                    
P  9  13347.790677   7480.615487  21706.720791     -9.124388                    
V  9 -13161.827880  24242.207894   -279.807853     -0.017114                    
P 10  15896.978411  -2889.047985  20745.905038   -184.112875                    
V 10  13506.652718  23690.296025  -6501.010261     -0.015267                    
P 11   7331.789785  15259.732609 -21014.417345   -593.928168                    
V 11 -23957.116438   9505.114529  -1380.275178     -0.024610                    
P 12 -10755.232755 -24207.195074  -3269.264473    313.436152                    
V 12   3387.951580   2689.172842 -31890.103197      0.033527                    
P 13  12136.817222 -23192.892491  -4993.702000   -135.657127                    
V 13   5359.658530  -3739.831102  31124.301919     -0.033335                    
P 14 -19036.074818   9671.403303 -15445.102091     46.121815                    
V 14   9266.477474 -17972.244480 -22468.013653     -0.026784                    
P 15    487.202626 -23063.891654 -12966.089865   -262.675324                    
V 15  10033.280893 -13488.381943  24865.643576     -0.020857                    
P 16  -3312.969770  19076.395023  17922.950644   -104.227882                    
V 16 -11814.575747 -19780.039262  19137.941022      0.041438                    
P 17  18616.375990 -11483.006034 -14624.807568   -181.731117                    
V 17  -8203.561384  17417.814628 -23844.629345     -0.015076                    
P 18 -19527.846841 -11008.614669 -13953.157938    420.470124                    
V 18  -7547.004907 -17205.377968  23007.785583      0.030946                    
P 19  -4715.278103  22644.931000 -12830.814064   -516.864485                    
V 19 -10954.314553  12052.714565  26163.964581     -0.009169                    
P 20 -12521.962856 -22956.578820   4226.679003    341.784423                    
V 20   6448.854245   2257.377145  30395.634119      0.032252                    
P 21 -25297.810388  -4802.482326   7904.999058   -467.021614                    
V 21   8922.841949  -3350.956603  28801.055474     -0.031024                    
P 22 -16669.350894   2488.133856 -20320.361307    375.155435                    
V 22 -13396.361843 -22840.839976   7922.144226      0.037599                    
P 23   5098.982790  18310.403662  18529.574631   -123.437238                    
V 23 -12939.493301  19586.639070 -16372.321318     -0.023119                    
P 24  -9244.674211 -14212.713422 -20514.711743     -1.979630                    
V 24  25900.972646  -1956.551721 -10186.359531     -0.006127                    
P 25 -17653.746832 -18004.703560   8500.647241    -17.807717                    
V 25  -3954.075220 -10318.810061 -29548.797438     -0.045918                    
P 26 -10841.841377  11132.421357  21529.483692    -15.080940                    
V 26 -14657.608352 -23109.685855   4569.968533     -0.065421                    
P 27 -11812.869154  23679.796326  -1335.134770      7.266429                    
V 27  -3159.839547    184.322218  31933.521043      0.028331                    
P 28  16520.745691   3477.666413 -19910.364539    456.344959                    
V 28  11375.131378  24036.110465  13150.553076      0.026202                    
P 29 -11203.983137 -10124.727115  21868.784922    624.659471                    
V 29  14777.697181 -23411.278647  -3226.752242      0.022069                    
P 30  26562.825719    306.459955  -1452.782486     -5.883137                    
V 30   1685.294693   2997.170144  31519.359354      0.074910                    
P 31 -22512.838570   7982.085176  12092.451471    308.495974                    
V 31 -14990.471740  -1855.176203 -26645.019284     -0.012755                    
P 32   2728.459504  24036.617704 -11594.151249    -89.264562                    
V 32  -8616.142735 -11910.744352 -26251.975931      0.102447                    
EOF
